NORAD_CAT_ID,OBJECT_NAME,OBJECT_TYPE,EPOCH,MEAN_MOTION,ECCENTRICITY,INCLINATION,RA_OF_ASC_NODE,ARG_OF_PERICENTER,MEAN_ANOMALY,BSTAR,MEAN_MOTION_DOT,MEAN_MOTION_DDOT,TLE_LINE0,TLE_LINE1,TLE_LINE2,SEMIMAJOR_AXIS,PERIOD,APOGEE,PERIGEE,DECAYED
51121.0,STARLINK-3399,PAYLOAD,2024-07-02 10:23:12,15.08828457,0.0001335,53.2144,171.1274,86.0334,274.0811,0.00025172,3.719e-05,0.0,0 STARLINK-3399,1 51121U 22005T   24184.43278006  .00003719  00000-0  25172-3 0  9998,2 51121  53.2144 171.1274 0001335  86.0334 274.0811 15.08828457137103,6917.916,95.438,540.704,538.857,0.0
51121.0,STARLINK-3399,PAYLOAD,2024-07-02 16:44:44,15.0883199,0.0001333,53.2147,169.9377,87.2823,272.8322,0.0002885,4.306e-05,0.0,0 STARLINK-3399,1 51121U 22005T   24184.69774078  .00004306  00000-0  28850-3 0  9995,2 51121  53.2147 169.9377 0001333  87.2823 272.8322 15.08831990136039,6917.905,95.438,540.692,538.848,0.0
51121.0,STARLINK-3399,PAYLOAD,2024-07-03 08:38:36,15.08838784,0.0001394,53.215,166.964,89.93,270.1852,0.00032557,4.897e-05,0.0,0 STARLINK-3399,1 51121U 22005T   24185.36014252  .00004897  00000-0  32557-3 0  9995,2 51121  53.2150 166.9640 0001394  89.9300 270.1852 15.08838784136137,6917.884,95.438,540.713,538.785,0.0
51121.0,STARLINK-3399,PAYLOAD,2024-07-04 05:18:36,15.08844572,0.0001399,53.2154,163.0974,91.8466,268.2686,0.00019263,2.779e-05,0.0,0 STARLINK-3399,1 51121U 22005T   24186.22126013  .00002779  00000-0  19263-3 0  9996,2 51121  53.2154 163.0974 0001399  91.8466 268.2686 15.08844572137371,6917.866,95.437,540.699,538.764,0.0
51121.0,STARLINK-3399,PAYLOAD,2024-07-04 22:47:51,15.08842397,0.0001366,53.2151,159.8269,93.774,266.3408,0.00010578,1.396e-05,0.0,0 STARLINK-3399,1 51121U 22005T   24186.94989991  .00001396  00000-0  10578-3 0  9991,2 51121  53.2151 159.8269 0001366  93.7740 266.3408 15.08842397136371,6917.873,95.437,540.683,538.793,0.0
51121.0,STARLINK-3399,PAYLOAD,2024-07-05 05:09:23,15.0883993,0.0001343,53.2152,158.6385,93.1131,267.0015,4.1573e-05,3.74e-06,0.0,0 STARLINK-3399,1 51121U 22005T   24187.21486061  .00000374  00000-0  41573-4 0  9997,2 51121  53.2152 158.6385 0001343  93.1131 267.0015 15.08839930137520,6917.881,95.438,540.675,538.817,0.0
51121.0,STARLINK-3399,PAYLOAD,2024-07-05 22:38:38,15.08839002,0.0001778,53.2155,155.3674,85.8475,274.272,1.5404e-05,-4.3e-07,0.0,0 STARLINK-3399,1 51121U 22005T   24187.94350150 -.00000043  00000-0  15404-4 0  9994,2 51121  53.2155 155.3674 0001778  85.8475 274.2720 15.08839002136521,6917.883,95.438,540.978,538.518,0.0
51121.0,STARLINK-3399,PAYLOAD,2024-07-06 05:00:11,15.08831762,0.0001465,53.2178,154.1814,100.47,259.6458,-2.7311e-05,-7.22e-06,0.0,0 STARLINK-3399,1 51121U 22005T   24188.20846995 -.00000722  00000-0 -27311-4 0  9996,2 51121  53.2178 154.1814 0001465 100.4700 259.6458 15.08831762137674,6917.906,95.438,540.784,538.757,0.0
51121.0,STARLINK-3399,PAYLOAD,2024-07-06 06:35:34,15.08833303,0.0001462,53.218,153.8833,97.2785,262.8374,-1.7012e-05,-5.59e-06,0.0,0 STARLINK-3399,1 51121U 22005T   24188.27470880 -.00000559  00000-0 -17012-4 0  9994,2 51121  53.2180 153.8833 0001462  97.2785 262.8374 15.08833303136571,6917.901,95.438,540.777,538.754,0.0
51121.0,STARLINK-3399,PAYLOAD,2024-07-06 14:32:30,15.08839121,0.0001491,53.2183,152.3965,99.038,261.0781,5.1399e-05,5.3e-06,0.0,0 STARLINK-3399,1 51121U 22005T   24188.60590329  .00000530  00000-0  51399-4 0  9995,2 51121  53.2183 152.3965 0001491  99.0380 261.0781 15.08839121137733,6917.883,95.438,540.78,538.717,0.0
51121.0,STARLINK-3399,PAYLOAD,2024-07-07 06:26:21,15.08836139,0.0001367,53.217,149.4211,91.3646,268.7503,7.4739e-05,9.02e-06,0.0,0 STARLINK-3399,1 51121U 22005T   24189.26830666  .00000902  00000-0  74739-4 0  9995,2 51121  53.2170 149.4211 0001367  91.3646 268.7503 15.08836139136722,6917.892,95.438,540.703,538.812,0.0
51121.0,STARLINK-3399,PAYLOAD,2024-07-08 04:41:45,15.08838523,0.0001378,53.217,145.2578,92.6015,267.5134,0.00014726,2.056e-05,0.0,0 STARLINK-3399,1 51121U 22005T   24190.19566533  .00002056  00000-0  14726-3 0  9999,2 51121  53.2170 145.2578 0001378  92.6015 267.5134 15.08838523137972,6917.885,95.438,540.703,538.797,0.0
51121.0,STARLINK-3399,PAYLOAD,2024-07-08 14:14:03,15.08851312,0.0001495,53.2176,143.4716,79.9676,280.1485,0.00010757,1.425e-05,0.0,0 STARLINK-3399,1 51121U 22005T   24190.59309830  .00001425  00000-0  10757-3 0  9997,2 51121  53.2176 143.4716 0001495  79.9676 280.1485 15.08851312136928,6917.846,95.437,540.745,538.677,0.0
51121.0,STARLINK-3399,PAYLOAD,2024-07-09 04:32:32,15.08840308,0.0001318,53.2161,140.7955,88.5009,271.6134,6.0434e-05,6.74e-06,0.0,0 STARLINK-3399,1 51121U 22005T   24191.18926686  .00000674  00000-0  60434-4 0  9990,2 51121  53.2161 140.7955 0001318  88.5009 271.6134 15.08840308138120,6917.879,95.438,540.656,538.833,0.0
51121.0,STARLINK-3399,PAYLOAD,2024-07-09 14:04:51,15.08846726,0.0001371,53.2166,139.0116,87.733,272.3819,0.0001108,1.476e-05,0.0,0 STARLINK-3399,1 51121U 22005T   24191.58670177  .00001476  00000-0  11080-3 0  9998,2 51121  53.2166 139.0116 0001371  87.7330 272.3819 15.08846726137073,6917.86,95.437,540.673,538.776,0.0
51121.0,STARLINK-3399,PAYLOAD,2024-07-09 20:26:23,15.08843252,0.0002073,53.2167,137.8217,87.3744,272.7485,4.4179e-05,4.15e-06,0.0,0 STARLINK-3399,1 51121U 22005T   24191.85166634  .00000415  00000-0  44179-4 0  9994,2 51121  53.2167 137.8217 0002073  87.3744 272.7485 15.08843252137116,6917.87,95.437,541.17,538.301,0.0
51121.0,STARLINK-3399,PAYLOAD,2024-07-10 13:55:38,15.08843536,0.0001579,53.2179,134.5507,109.0051,251.1113,-1.0655e-05,-4.58e-06,0.0,0 STARLINK-3399,1 51121U 22005T   24192.58030672 -.00000458  00000-0 -10655-4 0  9998,2 51121  53.2179 134.5507 0001579 109.0051 251.1113 15.08843536137224,6917.87,95.437,540.827,538.642,0.0
51121.0,STARLINK-3399,PAYLOAD,2024-07-10 20:17:11,15.08837352,0.0001434,53.2166,133.361,96.3009,263.8147,0.00012255,1.663e-05,0.0,0 STARLINK-3399,1 51121U 22005T   24192.84526779  .00001663  00000-0  12255-3 0  9999,2 51121  53.2166 133.3610 0001434  96.3009 263.8147 15.08837352138376,6917.888,95.438,540.746,538.761,0.0
51121.0,STARLINK-3399,PAYLOAD,2024-07-11 05:49:29,15.08845597,0.0001405,53.2171,131.5773,96.163,263.9523,0.00010155,1.329e-05,0.0,0 STARLINK-3399,1 51121U 22005T   24193.24270364  .00001329  00000-0  10155-3 0  9996,2 51121  53.2171 131.5773 0001405  96.1630 263.9523 15.08845597137321,6917.863,95.437,540.7,538.756,0.0
51121.0,STARLINK-3399,PAYLOAD,2024-07-12 04:04:54,15.08836491,0.0001411,53.2172,127.4141,102.4428,257.6722,7.6627e-05,9.32e-06,0.0,0 STARLINK-3399,1 51121U 22005T   24194.17007147  .00000932  00000-0  76627-4 0  9992,2 51121  53.2172 127.4141 0001411 102.4428 257.6722 15.08836491138570,6917.891,95.438,540.732,538.78,0.0
51121.0,STARLINK-3399,PAYLOAD,2024-07-12 12:01:49,15.08847041,0.0001283,53.2168,125.9286,100.5062,259.6075,0.000144,2.005e-05,0.0,0 STARLINK-3399,1 51121U 22005T   24194.50126328  .00002005  00000-0  14400-3 0  9995,2 51121  53.2168 125.9286 0001283 100.5062 259.6075 15.08847041138620,6917.859,95.437,540.611,538.836,0.0
51121.0,STARLINK-3399,PAYLOAD,2024-07-12 19:58:45,15.08837913,0.0001837,53.2172,124.4444,99.0114,261.1086,8.068e-05,9.96e-06,0.0,0 STARLINK-3399,1 51121U 22005T   24194.83247267  .00000996  00000-0  80680-4 0  9998,2 51121  53.2172 124.4444 0001837  99.0114 261.1086 15.08837913138672,6917.887,95.438,541.023,538.481,0.0
51121.0,STARLINK-3399,PAYLOAD,2024-07-13 02:20:18,15.08828876,0.0001224,53.2187,123.2574,92.61,267.5032,0.00012407,1.687e-05,0.0,0 STARLINK-3399,1 51121U 22005T   24195.09743879  .00001687  00000-0  12407-3 0  9996,2 51121  53.2187 123.2574 0001224  92.6100 267.5032 15.08828876138717,6917.914,95.438,540.626,538.933,0.0
51121.0,STARLINK-3399,PAYLOAD,2024-07-13 11:52:36,15.08848701,0.0001341,53.2171,121.4691,101.5121,258.6021,0.00014697,2.052e-05,0.0,0 STARLINK-3399,1 51121U 22005T   24195.49486469  .00002052  00000-0  14697-3 0  9999,2 51121  53.2171 121.4691 0001341 101.5121 258.6021 15.08848701138777,6917.854,95.437,540.646,538.791,0.0
51121.0,STARLINK-3399,PAYLOAD,2024-07-13 19:49:33,15.08830786,0.0001203,53.2167,119.9823,96.8753,263.2376,3.7567e-05,3.1e-06,0.0,0 STARLINK-3399,1 51121U 22005T   24195.82607992  .00000310  00000-0  37567-4 0  9999,2 51121  53.2167 119.9823 0001203  96.8753 263.2376 15.08830786138820,6917.909,95.438,540.606,538.941,0.0
51121.0,STARLINK-3399,PAYLOAD,2024-07-13 23:00:19,15.08833839,0.0001353,53.2159,119.3881,100.3949,259.7195,1.1346e-05,-1.07e-06,0.0,0 STARLINK-3399,1 51121U 22005T   24195.95855418 -.00000107  00000-0  11346-4 0  9993,2 51121  53.2159 119.3881 0001353 100.3949 259.7195 15.08833839137733,6917.899,95.438,540.7,538.828,0.0
51121.0,STARLINK-3399,PAYLOAD,2024-07-14 00:35:42,15.0883571,0.000136,53.2157,119.0905,100.0158,260.0987,3.8633e-05,3.27e-06,0.0,0 STARLINK-3399,1 51121U 22005T   24196.02479366  .00000327  00000-0  38633-4 0  9997,2 51121  53.2157 119.0905 0001360 100.0158 260.0987 15.08835710138850,6917.894,95.438,540.699,538.818,0.0
51121.0,STARLINK-3399,PAYLOAD,2024-07-14 11:43:23,15.08853868,0.0001081,53.2158,117.0056,73.4951,286.616,0.00028827,4.305e-05,0.0,0 STARLINK-3399,1 51121U 22005T   24196.48846367  .00004305  00000-0  28827-3 0  9999,2 51121  53.2158 117.0056 0001081  73.4951 286.6160 15.08853868138929,6917.838,95.437,540.451,538.955,0.0
51121.0,STARLINK-3399,PAYLOAD,2024-07-14 22:51:06,15.08834565,0.0001402,53.2181,114.9293,93.3135,266.8017,8.8263e-05,1.117e-05,0.0,0 STARLINK-3399,1 51121U 22005T   24196.95215544  .00001117  00000-0  88263-4 0  9997,2 51121  53.2181 114.9293 0001402  93.3135 266.8017 15.08834565137884,6917.897,95.438,540.732,538.792,0.0
51121.0,STARLINK-3399,PAYLOAD,2024-07-15 02:01:52,15.08842382,0.0001453,53.2167,114.3322,82.2349,277.8808,0.00014462,2.015e-05,0.0,0 STARLINK-3399,1 51121U 22005T   24197.08463158  .00002015  00000-0  14462-3 0  9995,2 51121  53.2167 114.3322 0001453  82.2349 277.8808 15.08842382139018,6917.873,95.437,540.743,538.733,0.0
